OBJECT_NAME,OBJECT_ID,EPOCH,MEAN_MOTION,ECCENTRICITY,INCLINATION,RA_OF_ASC_NODE,ARG_OF_PERICENTER,MEAN_ANOMALY,EPHEMERIS_TYPE,CLASSIFICATION_TYPE,NORAD_CAT_ID,ELEMENT_SET_NO,REV_AT_EPOCH,BSTAR,MEAN_MOTION_DOT,MEAN_MOTION_DDOT
QIANFAN-176,2026-124M,2026-06-25T12:56:01.966560,14.21842178,.00032551,88.9984,1.0810,150.8402,209.2972,0,U,69393,999,300,.54070156E-4,.134E-5,0
QIANFAN-177,2026-124N,2026-06-25T12:45:56.507328,14.22731604,.00043606,88.9984,1.0799,128.2395,231.9190,0,U,69394,999,300,.51621144E-4,.13E-5,0
QIANFAN-178,2026-124P,2026-06-25T12:50:42.010080,14.22275186,.00036602,88.9984,1.0804,137.1463,223.0015,0,U,69395,999,300,.51456924E-4,.129E-5,0
QIANFAN-179,2026-124Q,2026-06-25T12:40:49.923840,14.23098231,.00036654,88.9983,1.0792,133.2475,226.9023,0,U,69396,999,300,.48456084E-4,.124E-5,0
QIANFAN-180,2026-124R,2026-06-25T12:35:54.603456,14.23619948,.00039418,88.9984,1.0789,143.7040,216.4420,0,U,69397,999,300,.55194737E-4,.14E-5,0
QIANFAN-181,2026-124S,2026-06-25T12:27:12.272256,14.16650237,.00028775,88.9984,1.0966,106.8533,253.2971,0,U,69398,999,299,.47507964E-4,.109E-5,0
QIANFAN-182,2026-124T,2026-06-25T13:38:01.872672,14.18739496,.00031028,88.9984,1.0854,127.0284,233.1190,0,U,69399,999,300,.49758677E-4,.118E-5,0
QIANFAN-183,2026-125A,2026-06-25T12:49:45.608160,14.16464698,.00151601,88.9953,279.5052,147.8650,212.3466,0,U,69401,999,288,.17138078E-3,.355E-5,0
QIANFAN-184,2026-125B,2026-06-25T12:38:35.118240,14.16884636,.00160658,88.9953,279.5043,142.2772,217.9546,0,U,69402,999,288,.17118582E-3,.358E-5,0
QIANFAN-185,2026-125C,2026-06-25T12:44:35.230848,14.16089501,.00169022,88.9954,279.5048,142.8610,217.3751,0,U,69403,999,288,.17805107E-3,.366E-5,0
QIANFAN-186,2026-125D,2026-06-25T14:09:17.591616,14.17435606,.00153563,88.9954,279.4951,143.3609,216.8633,0,U,69404,999,289,.17990484E-3,.379E-5,0
QIANFAN-187,2026-125E,2026-06-25T13:59:15.704160,14.18346301,.00158675,88.9954,279.4939,144.4579,215.7670,0,U,69405,999,289,.17799754E-3,.381E-5,0
QIANFAN-188,2026-125F,2026-06-25T13:46:39.078624,14.19438554,.00158319,88.9953,279.4925,147.9553,212.2603,0,U,69406,999,289,.17813193E-3,.389E-5,0
QIANFAN-189,2026-125G,2026-06-25T13:51:24.764544,14.18757543,.00150892,88.9954,279.4931,145.3341,214.8835,0,U,69407,999,289,.1767722E-3,.382E-5,0
QIANFAN-190,2026-125H,2026-06-25T13:46:00.596064,14.19220622,.00158627,88.9954,279.4927,146.9958,213.2226,0,U,69408,999,289,.1754022E-3,.382E-5,0
QIANFAN-191,2026-125J,2026-06-25T13:34:19.034976,14.20091866,.0015275,88.9953,279.4912,145.8199,214.3978,0,U,69409,999,289,.17930954E-3,.397E-5,0
QIANFAN-192,2026-125K,2026-06-25T13:28:20.055936,14.20517841,.00161283,88.9954,279.4908,146.2224,213.9998,0,U,69410,999,289,.18131316E-3,.404E-5,0
QIANFAN-193,2026-125L,2026-06-25T13:20:42.523872,14.20960354,.00160112,88.9953,279.4899,146.6360,213.5843,0,U,69411,999,289,.17561135E-3,.395E-5,0
QIANFAN-194,2026-125M,2026-06-25T13:15:31.991040,14.21402125,.00152795,88.9953,279.4893,150.1242,210.0824,0,U,69412,999,288,.17884905E-3,.405E-5,0
QIANFAN-195,2026-125N,2026-06-25T13:10:40.626912,14.21799469,.00164867,88.9954,279.4889,148.9120,211.3050,0,U,69413,999,289,.18114643E-3,.413E-5,0
QIANFAN-196,2026-125P,2026-06-25T13:04:57.728640,14.22294573,.00165973,88.9954,279.4883,149.3530,210.8635,0,U,69414,999,289,.17549161E-3,.405E-5,0
QIANFAN-197,2026-125Q,2026-06-25T13:00:38.877696,14.22739044,.00148892,88.9954,279.4878,146.2756,213.9386,0,U,69415,999,288,.17594795E-3,.409E-5,0
QIANFAN-198,2026-125R,2026-06-25T13:05:50.249472,14.22065738,.0015201,88.9954,279.4884,145.7410,214.4765,0,U,69416,999,289,.17659857E-3,.405E-5,0
QIANFAN-199,2026-125S,2026-06-25T12:52:24.206592,14.23629258,.00169169,88.9953,279.4869,146.7744,213.4514,0,U,69417,999,289,.17874159E-3,.422E-5,0
QIANFAN-200,2026-125T,2026-06-25T11:57:30.989376,14.19639386,.00159608,88.9954,279.4998,144.9468,215.2775,0,U,69418,999,288,.17802417E-3,.391E-5,0
STARLINK-37537,2026-126A,2026-06-25T13:25:19.627680,15.75296790,.00015894,97.2835,36.9479,125.7920,234.3494,0,U,69420,999,406,.20698491E-2,.322016E-2,0
STARLINK-37585,2026-126B,2026-06-25T13:10:05.682432,15.75248858,.00012819,97.2847,36.9628,102.0821,258.0588,0,U,69421,999,406,.16783902E-2,.258601E-2,0
STARLINK-37573,2026-126C,2026-06-25T13:29:53.913984,15.75331690,.00012409,97.2839,36.9425,140.7256,219.4099,0,U,69422,999,406,.2374864E-2,.372263E-2,0
