QIANFAN-176             
1 69393U 26124M   26176.53891165  .00000134  00000+0  54070-4 0  9992
2 69393  88.9984   1.0810 0003255 150.8402 209.2972 14.21842178  3005
QIANFAN-177             
1 69394U 26124N   26176.53190402  .00000130  00000+0  51621-4 0  9994
2 69394  88.9984   1.0799 0004360 128.2395 231.9190 14.22731604  3006
QIANFAN-178             
1 69395U 26124P   26176.53520845  .00000129  00000+0  51457-4 0  9998
2 69395  88.9984   1.0804 0003660 137.1463 223.0015 14.22275186  3007
QIANFAN-179             
1 69396U 26124Q   26176.52835560  .00000124  00000+0  48456-4 0  9991
2 69396  88.9983   1.0792 0003665 133.2475 226.9023 14.23098231  3004
QIANFAN-180             
1 69397U 26124R   26176.52493754  .00000140  00000+0  55195-4 0  9993
2 69397  88.9984   1.0789 0003941 143.7040 216.4420 14.23619948  3002
QIANFAN-181             
1 69398U 26124S   26176.51889204  .00000109  00000+0  47508-4 0  9996
2 69398  88.9984   1.0966 0002877 106.8533 253.2971 14.16650237  2999
QIANFAN-182             
1 69399U 26124T   26176.56807723  .00000118  00000+0  49759-4 0  9998
2 69399  88.9984   1.0854 0003102 127.0284 233.1190 14.18739496  3006
QIANFAN-183             
1 69401U 26125A   26176.53455565  .00000355  00000+0  17138-3 0  9991
2 69401  88.9953 279.5052 0015160 147.8650 212.3466 14.16464698  2889
QIANFAN-184             
1 69402U 26125B   26176.52679535  .00000358  00000+0  17119-3 0  9998
2 69402  88.9953 279.5043 0016065 142.2772 217.9546 14.16884636  2887
QIANFAN-185             
1 69403U 26125C   26176.53096332  .00000366  00000+0  17805-3 0  9999
2 69403  88.9954 279.5048 0016902 142.8610 217.3751 14.16089501  2881
QIANFAN-186             
1 69404U 26125D   26176.58978694  .00000379  00000+0  17990-3 0  9994
2 69404  88.9954 279.4951 0015356 143.3609 216.8633 14.17435606  2896
QIANFAN-187             
1 69405U 26125E   26176.58282065  .00000381  00000+0  17800-3 0  9998
2 69405  88.9954 279.4939 0015867 144.4579 215.7670 14.18346301  2891
QIANFAN-188             
1 69406U 26125F   26176.57406341  .00000389  00000+0  17813-3 0  9995
2 69406  88.9953 279.4925 0015831 147.9553 212.2603 14.19438554  2898
QIANFAN-189             
1 69407U 26125G   26176.57736996  .00000382  00000+0  17677-3 0  9999
2 69407  88.9954 279.4931 0015089 145.3341 214.8835 14.18757543  2895
QIANFAN-190             
1 69408U 26125H   26176.57361801  .00000382  00000+0  17540-3 0  9998
2 69408  88.9954 279.4927 0015862 146.9958 213.2226 14.19220622  2892
QIANFAN-191             
1 69409U 26125J   26176.56549809  .00000397  00000+0  17931-3 0  9994
2 69409  88.9953 279.4912 0015275 145.8199 214.3978 14.20091866  2893
QIANFAN-192             
1 69410U 26125K   26176.56134324  .00000404  00000+0  18131-3 0  9990
2 69410  88.9954 279.4908 0016128 146.2224 213.9998 14.20517841  2896
QIANFAN-193             
1 69411U 26125L   26176.55604773  .00000395  00000+0  17561-3 0  9995
2 69411  88.9953 279.4899 0016011 146.6360 213.5843 14.20960354  2897
QIANFAN-194             
1 69412U 26125M   26176.55245360  .00000405  00000+0  17885-3 0  9990
2 69412  88.9953 279.4893 0015279 150.1242 210.0824 14.21402125  2884
QIANFAN-195             
1 69413U 26125N   26176.54908133  .00000413  00000+0  18115-3 0  9990
2 69413  88.9954 279.4889 0016486 148.9120 211.3050 14.21799469  2898
QIANFAN-196             
1 69414U 26125P   26176.54511260  .00000405  00000+0  17549-3 0  9993
2 69414  88.9954 279.4883 0016597 149.3530 210.8635 14.22294573  2896
QIANFAN-197             
1 69415U 26125Q   26176.54211664  .00000409  00000+0  17595-3 0  9994
2 69415  88.9954 279.4878 0014889 146.2756 213.9386 14.22739044  2882
QIANFAN-198             
1 69416U 26125R   26176.54572048  .00000405  00000+0  17660-3 0  9990
2 69416  88.9954 279.4884 0015201 145.7410 214.4765 14.22065738  2890
QIANFAN-199             
1 69417U 26125S   26176.53639128  .00000422  00000+0  17874-3 0  9999
2 69417  88.9953 279.4869 0016916 146.7744 213.4514 14.23629258  2893
QIANFAN-200             
1 69418U 26125T   26176.49827534  .00000391  00000+0  17802-3 0  9991
2 69418  88.9954 279.4998 0015960 144.9468 215.2775 14.19639386  2885
STARLINK-37537          
1 69420U 26126A   26176.55925495  .00322016  00000+0  20698-2 0  9994
2 69420  97.2835  36.9479 0001589 125.7920 234.3494 15.75296790  4064
STARLINK-37585          
1 69421U 26126B   26176.54867688  .00258601  00000+0  16784-2 0  9992
2 69421  97.2847  36.9628 0001281 102.0821 258.0588 15.75248858  4060
STARLINK-37573          
1 69422U 26126C   26176.56242956  .00372263  00000+0  23749-2 0  9990
2 69422  97.2839  36.9425 0001240 140.7256 219.4099 15.75331690  4068
